     2.100          NAVIGATION                              RINEX VERSION / TYPE
fic2rin                                 10/13/2011 00:04:56 PGM / RUN BY / DATE
                                                            END OF HEADER
28 11 10 12  3 59 28.0  .748392194510D-04  .318323145621D-11  .000000000000D+00
     .300000000000D+01  .539687500000D+02  .411445709794D-08 -.293199961673D+01
     .276230275631D-05  .172706521116D-01  .756047666073D-05  .515370063782D+04
     .273568000000D+06  .150874257088D-06  .856996895441D+00 -.633299350739D-07
     .976054938480D+00  .239531250000D+03 -.187812586284D+01 -.754888586997D-08
     .512521348571D-09  .100000000000D+01  .165700000000D+04  .000000000000D+00
     .240000000000D+01  .000000000000D+00 -.102445483208D-07  .300000000000D+01
     .266406000000D+06  .400000000000D+01
 1 11 10 12  4  0  0.0  .189379788935D-04  .320596882375D-10  .000000000000D+00
     .270000000000D+02 -.193750000000D+01  .426874923911D-08 -.908938376772D+00
    -.763684511185D-07  .383287901059D-03  .115372240543D-04  .515367203140D+04
     .273600000000D+06  .260770320892D-07  .289924050535D+01  .204890966415D-07
     .960719307233D+00  .158593750000D+03  .152147947118D+01 -.783246911092D-08
    -.205722854897D-09  .100000000000D+01  .165700000000D+04  .000000000000D+00
     .340000000000D+01  .630000000000D+02  .791624188423D-08  .270000000000D+02
     .266406000000D+06  .400000000000D+01
 2 11 10 12  4  0  0.0  .360404606909D-03  .181898940355D-11  .000000000000D+00
     .770000000000D+02  .450000000000D+01  .476269838550D-08  .136981292564D+01
     .130385160446D-06  .105503380764D-01  .115856528282D-04  .515358961105D+04
     .273600000000D+06 -.316649675369D-07  .289045769379D+01  .137835741043D-06
     .939304506740D+00  .144156250000D+03 -.292547099078D+01 -.809855162290D-08
    -.382515933324D-09  .100000000000D+01  .165700000000D+04  .000000000000D+00
     .240000000000D+01  .000000000000D+00 -.172294676304D-07  .770000000000D+02
     .266406000000D+06  .400000000000D+01
 3 11 10 12  4  0  0.0  .780147965997D-03  .511590769747D-11  .000000000000D+00
     .340000000000D+02 -.186875000000D+02  .566559313755D-08  .154101533626D+01
    -.121816992760D-05  .148696117103D-01  .400654971600D-05  .515367190170D+04
     .273600000000D+06 -.264495611191D-06  .173017812089D+01 -.189989805222D-06
     .929213684040D+00  .288968750000D+03  .114548542031D+01 -.883286792440D-08
    -.166078346401D-09  .100000000000D+01  .165700000000D+04  .000000000000D+00
     .240000000000D+01  .000000000000D+00 -.465661287308D-08  .340000000000D+02
     .266406000000D+06  .400000000000D+01
 4 11 10 12  4  0  0.0  .257895328104D-03  .113686837722D-10  .000000000000D+00
     .430000000000D+02  .106562500000D+02  .472448250795D-08 -.170586840740D+01
     .359490513802D-06  .988417223562D-02  .108629465103D-04  .515372448158D+04
     .273600000000D+06  .143423676491D-06  .290763578844D+01 -.875443220139D-07
     .938393544726D+00  .150218750000D+03  .779258221610D+00 -.795533137148D-08
    -.111433213069D-09  .100000000000D+01  .165700000000D+04  .000000000000D+00
     .240000000000D+01  .000000000000D+00 -.651925802231D-08  .430000000000D+02
     .266406000000D+06  .400000000000D+01
 5 11 10 12  4  0  0.0 -.230519566685D-03 -.511590769747D-11  .000000000000D+00
     .400000000000D+02  .110687500000D+03  .486163107788D-08 -.288329688681D+01
     .577419996262D-05  .249149464071D-02  .621378421783D-05  .515377646065D+04
     .273600000000D+06  .186264514923D-08 -.233077151799D+01 -.204890966415D-07
     .953036649573D+00  .259125000000D+03  .164204909188D+00 -.827713048999D-08
     .477519890620D-09  .100000000000D+01  .165700000000D+04  .000000000000D+00
     .240000000000D+01  .000000000000D+00 -.102445483208D-07  .400000000000D+02
     .266406000000D+06  .400000000000D+01
 6 11 10 12  4  0  0.0 -.512921251357D-04  .750333128963D-11  .000000000000D+00
     .107000000000D+03 -.232812500000D+02  .537308095325D-08 -.276555578018D+01
    -.107660889626D-05  .666789419483D-02  .391528010368D-05  .515369855309D+04
     .273600000000D+06  .372529029846D-08  .180499367081D+01  .968575477600D-07
     .936276788578D+00  .289593750000D+03 -.668961199959D+00 -.851428322550D-08
    -.188222125921D-09  .100000000000D+01  .165700000000D+04  .000000000000D+00
     .485000000000D+01  .000000000000D+00 -.465661287308D-08  .107000000000D+03
     .266406000000D+06  .400000000000D+01
 7 11 10 12  4  0  0.0  .313064083457D-04  .204636307899D-11  .000000000000D+00
     .410000000000D+02 -.660000000000D+02  .394409285873D-08 -.130128279154D+00
    -.367499887943D-05  .505706528202D-02  .110156834126D-04  .515363844872D+04
     .273600000000D+06  .633299350739D-07 -.222800586047D+00  .298023223877D-07
     .975518223095D+00  .175375000000D+03 -.305546707187D+01 -.775889461768D-08
    -.243581574722D-09  .100000000000D+01  .165700000000D+04  .000000000000D+00
     .240000000000D+01  .000000000000D+00 -.107102096081D-07  .410000000000D+02
     .266406000000D+06  .400000000000D+01
 8 11 10 12  4  0  0.0  .484287738800D-07  .000000000000D+00  .000000000000D+00
     .880000000000D+02 -.484375000000D+02  .346335854850D-08 -.633871246070D+00
    -.271946191788D-05  .121436043410D-01  .116936862469D-04  .515374566460D+04
     .273600000000D+06  .240281224251D-06 -.144421212615D+00 -.856816768646D-07
     .997428604642D+00  .173406250000D+03 -.302164027460D+01 -.748102590047D-08
    -.138577200868D-09  .100000000000D+01  .165700000000D+04  .000000000000D+00
     .340000000000D+01  .000000000000D+00 -.419095158577D-08  .880000000000D+02
     .266406000000D+06  .400000000000D+01
 9 11 10 12  4  0  0.0  .111169647425D-03  .238742359215D-11  .000000000000D+00
     .230000000000D+02 -.663750000000D+02  .385480342518D-08 -.813324618532D+00
    -.345334410667D-05  .171953382669D-01  .119451433420D-04  .515366409111D+04
     .273600000000D+06 -.236555933952D-06 -.250202792785D+00  .614672899246D-07
     .984356866917D+00  .162625000000D+03  .160068758331D+01 -.796783189218D-08
    -.173221501085D-09  .100000000000D+01  .165700000000D+04  .000000000000D+00
     .240000000000D+01  .000000000000D+00 -.558793544769D-08  .230000000000D+02
     .266406000000D+06  .400000000000D+01
10 11 10 12  4  0  0.0 -.159335322678D-04 -.113686837722D-11  .000000000000D+00
     .560000000000D+02  .102218750000D+03  .494877756502D-08 -.260696471964D+01
     .502727925777D-05  .105464848457D-01  .574439764023D-05  .515364011192D+04
     .273600000000D+06  .745058059692D-07 -.230788193808D+01 -.158324837685D-06
     .947938100650D+00  .263562500000D+03  .709991249323D+00 -.823891461244D-08
     .494306304127D-09  .100000000000D+01  .165700000000D+04  .000000000000D+00
     .340000000000D+01  .000000000000D+00 -.232830643654D-08  .560000000000D+02
     .266406000000D+06  .400000000000D+01
11 11 10 12  4  0  0.0 -.193965621293D-03 -.341060513165D-11  .000000000000D+00
     .110000000000D+02 -.360000000000D+02  .614132723950D-08  .473824024673D-01
    -.184215605259D-05  .124432949815D-01  .966154038906D-05  .515367177010D+04
     .273600000000D+06 -.875443220139D-07  .264621088816D+01  .232830643654D-06
     .888258170352D+00  .157750000000D+03  .983331566152D+00 -.893715798279D-08
    -.369301097159D-09  .100000000000D+01  .165700000000D+04  .000000000000D+00
     .240000000000D+01  .000000000000D+00 -.116415321827D-07  .110000000000D+02
     .266406000000D+06  .400000000000D+01
12 11 10 12  4  0  0.0  .279601663351D-04  .238742359215D-11  .000000000000D+00
     .400000000000D+02  .490000000000D+02  .428446417942D-08 -.321468345235D+00
     .243075191975D-05  .357214256655D-02  .810809433460D-05  .515364461136D+04
     .273600000000D+06  .113621354103D-06  .831998672724D+00 -.745058059692D-08
     .976816557039D+00  .233625000000D+03 -.650276887785D-01 -.795247410961D-08
     .442518432669D-09  .100000000000D+01  .165700000000D+04  .000000000000D+00
     .240000000000D+01  .000000000000D+00 -.121071934700D-07  .400000000000D+02
     .266406000000D+06  .400000000000D+01
13 11 10 12  4  0  0.0  .247080810368D-03 -.193267624127D-11  .000000000000D+00
     .640000000000D+02 -.630000000000D+02  .425696303388D-08  .231381110702D+01
    -.321492552757D-05  .458138820250D-02  .328198075294D-05  .515376765823D+04
     .273600000000D+06  .894069671631D-07 -.119571645489D+01 -.119209289551D-06
     .987962703972D+00  .326468750000D+03  .195675655536D+01 -.808855120634D-08
    -.356800576462D-09  .100000000000D+01  .165700000000D+04  .000000000000D+00
     .240000000000D+01  .000000000000D+00 -.111758708954D-07  .640000000000D+02
     .266406000000D+06  .400000000000D+01
14 11 10 12  4  0  0.0  .176410656422D-03  .170530256582D-11  .000000000000D+00
     .110000000000D+02 -.652812500000D+02  .440089760076D-08  .236179311864D+01
    -.352039933205D-05  .631054444239D-02  .282190740108D-05  .515372169113D+04
     .273600000000D+06 -.931322574615D-08 -.122085762665D+01 -.838190317154D-07
     .980910268496D+00  .335406250000D+03 -.208101223808D+01 -.814891086342D-08
    -.333228166005D-09  .100000000000D+01  .165700000000D+04  .000000000000D+00
     .240000000000D+01  .000000000000D+00 -.884756445885D-08  .110000000000D+02
     .266406000000D+06  .400000000000D+01
15 11 10 12  4  0  0.0 -.102903693914D-03  .136424205266D-11  .000000000000D+00
     .340000000000D+02 -.565000000000D+02  .535665169747D-08  .206045325637D+01
    -.274740159512D-05  .375567609444D-02  .219605863094D-05  .515369380188D+04
     .273600000000D+06  .111758708954D-07 -.130121639554D+01  .169500708580D-06
     .947920138942D+00  .330406250000D+03 -.792692972216D-01 -.873214944336D-08
    -.253224833545D-09  .100000000000D+01  .165700000000D+04  .000000000000D+00
     .240000000000D+01  .000000000000D+00 -.102445483208D-07  .340000000000D+02
     .266406000000D+06  .400000000000D+01
